PROBA-1                 
1 26958U 01049B   26190.83670944  .00002076  00000+0  13622-3 0  9994
2 26958  97.9606 200.1602 0055959  47.3405 313.2518 15.07598868347033
CUTE-1 (CO-55)          
1 27844U 03031E   26189.95445865  .00000197  00000+0  10410-3 0  9999
2 27844  98.6739 198.2397 0010684 118.8005 241.4249 14.24348882194778
CUBESAT XI-IV (CO-57)   
1 27848U 03031J   26189.46187375  .00000184  00000+0  99678-4 0  9998
2 27848  98.6772 197.4488 0010258 137.0463 223.1519 14.23632050194408
APRIZESAT 4             
1 35684U 09041D   26190.71160997  .00000441  00000+0  59423-4 0  9993
2 35684  98.1405 266.4805 0041979 247.7993 111.8764 14.83909146914701
APRIZESAT 3             
1 35686U 09041F   26189.36472022  .00001101  00000+0  99795-4 0  9999
2 35686  98.2085 343.6064 0061311 358.3556   1.7453 14.96295907919545
PROBA-2                 
1 36037U 09059B   26190.73002845  .00000125  00000+0  39764-4 0  9999
2 36037  98.2458  13.7710 0012624 206.1058 153.9504 14.54872119884800
APRIZESAT 5             
1 37792U 11044E   26189.76089673  .00000678  00000+0  92979-4 0  9990
2 37792  98.2450 123.4135 0050828 293.9839  65.6055 14.81120449801980
APRIZESAT 6             
1 37793U 11044F   26190.25163867  .00000565  00000+0  86960-4 0  9993
2 37793  98.2345 101.2003 0043542  17.1771 143.8073 14.76951131800407
PROBA-V                 
1 39159U 13021A   26190.68051473  .00000061  00000+0  44770-4 0  9998
2 39159  98.3601 168.1783 0005384  72.5879 287.5889 14.23602758684315
APRIZESAT 7             
1 39416U 13066A   26190.29181148  .00000962  00000+0  10031-3 0  9995
2 39416  97.7719 143.1956 0036823 136.2603 224.1544 14.91611282684529
APRIZESAT 8             
1 39425U 13066K   26190.27018226  .00000580  00000+0  68770-4 0  9999
2 39425  97.8227 137.4314 0045007 211.6319 148.2191 14.87690621682952
BUGSAT-1 (TITA)         
1 40014U 14033E   26190.81214223  .00004681  00000+0  24618-3 0  9993
2 40014  98.0422 284.6881 0029041 103.3830 257.0641 15.15844396659266
SAUDISAT 4              
1 40016U 14033G   26190.63924045  .00000355  00000+0  53590-4 0  9991
2 40016  97.7610 336.0009 0044729   2.2228 357.9175 14.79571960649393
APRIZESAT 9             
1 40018U 14033J   26190.60588904  .00000477  00000+0  77298-4 0  9996
2 40018  97.9087 323.2598 0067246 127.5578 233.1765 14.74247790646869
APRIZESAT 10            
1 40019U 14033K   26190.30352681  .00000426  00000+0  74622-4 0  9997
2 40019  97.9675 316.7729 0078260 202.2274 157.5534 14.70906398645503
TECHDEMOSAT-1 (TDS-1)   
1 40076U 14037H   26190.70365852  .00004644  00000+0  26272-3 0  9995
2 40076  98.3824 185.1544 0006366 175.4658 184.6630 15.13630061651633
TECHNOSAT               
1 42829U 17042E   26190.25612473  .00002728  00000+0  19535-3 0  9991
2 42829  97.4302 347.0777 0017912  22.5340 337.6669 15.05086319490026
FLYING LAPTOP           
1 42831U 17042G   26190.84802454  .00002631  00000+0  20822-3 0  9993
2 42831  97.4786 345.5249 0019893  49.3931 310.9021 15.01291095489855
HAWK-A                  
1 43765U 18099H   26189.93901917  .00004252  00000+0  17107-3 0  9998
2 43765  97.3904 241.8930 0034071 206.1617 153.7901 15.24910778416410
HAWK-B                  
1 43794U 18099AN  26190.11801696  .00003624  00000+0  15492-3 0  9992
2 43794  97.3952 241.4385 0030830 223.9144 135.9642 15.23069318416379
HAWK-C                  
1 43799U 18099AT  26190.58617811  .00005767  00000+0  20631-3 0  9993
2 43799  97.3883 243.5549 0039744 203.7695 156.1711 15.28432689417331
SALSAT                  
1 46495U 20068K   26190.25177099  .00005482  00000+0  19084-3 0  9995
2 46495  97.8858 194.6644 0008593 215.0810 144.9864 15.30117525318739
HAWK-2C                 
1 47502U 21006CT  26190.71061757  .00004689  00000+0  14053-3 0  9991
2 47502  97.2272 234.5729 0008534 116.5686 243.6433 15.34943582302952
HAWK-2A                 
1 47505U 21006CW  26190.71289522  .00004803  00000+0  14384-3 0  9991
2 47505  97.2314 235.2660 0008025 119.7242 240.4801 15.34958612302956
HAWK-2B                 
1 47508U 21006CZ  26190.05502054  .00004991  00000+0  14879-3 0  9996
2 47508  97.2184 232.9178 0008602 120.1450 240.0648 15.35076738302855
HAWK-3B                 
1 48931U 21059BE  26189.98797792  .00035169  00000+0  27624-3 0  9993
2 48931  97.6654  28.7876 0003957 222.4418 137.6539 15.71448162281272
HAWK-3C                 
1 48948U 21059BX  26189.54192624  .00038991  00000+0  30651-3 0  9996
2 48948  97.6771  34.0207 0004226 223.2923 136.8007 15.71407356281202
HAWK-3A                 
1 48957U 21059CG  26189.54181301  .00041263  00000+0  32419-3 0  9996
2 48957  97.6713  31.2077 0004069 227.6759 132.4159 15.71409877281202
HAWK-5C                 
1 52754U 22057Y   26190.74249726  .00014173  00000+0  23553-3 0  9994
2 52754  97.6610 351.8809 0003311   7.9720 352.1583 15.52195639229849
HAWK-5B                 
1 52756U 22057AA  26190.74230529  .00013532  00000+0  22497-3 0  9991
2 52756  97.6627 350.2329 0003978 354.7757   5.3452 15.52193096229848
